ONEWEB-0696             
1 56723U 23068P   26069.52630608 -.00000075  00000+0 -23434-3 0  9997
2 56723  87.8938 278.9237 0001802 105.5156 254.6173 13.15549339136393
ONEWEB-0703             
1 56724U 23068Q   26069.53581605 -.00000105  00000+0 -31384-3 0  9998
2 56724  87.8937 278.9025 0001611 127.1298 232.9979 13.15547510136283
ONEWEB-0721             
1 56725U 23068R   26069.48008947  .00000028  00000+0  31740-4 0  9995
2 56725  86.6759 117.0352 0001921  99.8973 260.2377 13.22461951144892
ONEWEB-0015             
1 61594U 24188A   26069.42885229  .00000220  00000+0  58542-3 0  9991
2 61594  87.8864  40.7299 0001407  67.4489 292.6788 13.11419467 71512
ONEWEB-0687             
1 61595U 24188B   26069.43782196 -.00000120  00000+0 -34119-3 0  9997
2 61595  87.9142  25.4931 0001912  63.3051 296.8276 13.17649091 72891
ONEWEB-0688             
1 61596U 24188C   26067.94760759  .00017991  00000+0  46114-1 0  9991
2 61596  87.9138  25.7892 0002425 298.5992  61.4895 13.17794613 72694
ONEWEB-0689             
1 61597U 24188D   26069.46276469  .00000020  00000+0  20271-4 0  9995
2 61597  87.8877  40.6635 0002059  75.5240 284.6116 13.11414300 71518
ONEWEB-0690             
1 61598U 24188E   26069.47293528 -.00000406  00000+0 -11807-2 0  9995
2 61598  87.8870  40.6818 0001732 106.1520 253.9798 13.11414910 71695
ONEWEB-0691             
1 61599U 24188F   26069.46785140 -.00000169  00000+0 -51268-3 0  9993
2 61599  87.8877  40.5830 0001592  72.1779 287.9522 13.11414288 71542
ONEWEB-0692             
1 61600U 24188G   26069.41189697 -.00000380  00000+0 -11090-2 0  9999
2 61600  87.8858  40.7263 0002746  85.9847 274.1595 13.11417240 71523
ONEWEB-0693             
1 61601U 24188H   26069.40237551  .00000067  00000+0  13952-3 0  9992
2 61601  87.9134  25.5219 0001384 110.3149 249.8131 13.17650093 72874
ONEWEB-0695             
1 61602U 24188J   26069.46446323 -.00000071  00000+0 -23600-3 0  9996
2 61602  87.8859  40.7068 0002336  77.0561 283.0828 13.11415300 71522
ONEWEB-0697             
1 61603U 24188K   26069.42037956 -.00000148  00000+0 -45392-3 0  9998
2 61603  87.8862  40.7049 0002633  86.5015 273.6414 13.11418125 71507
ONEWEB-0698             
1 61604U 24188L   26069.47463101 -.00000409  00000+0 -11892-2 0  9996
2 61604  87.8858  40.7099 0002671 106.6656 253.4765 13.11414995 71534
ONEWEB-0699             
1 61605U 24188M   26069.48528498  .00000591  00000+0  16563-2 0  9999
2 61605  87.8783  55.9150 0002504  91.0080 269.1335 13.10373231 70386
ONEWEB-0700             
1 61606U 24188N   26069.48694304  .00000736  00000+0  20719-2 0  9999
2 61606  87.8794  55.8092 0002534  81.3798 278.7616 13.10372495 70372
ONEWEB-0701             
1 61607U 24188P   26069.50353189  .00000050  00000+0  10562-3 0  9991
2 61607  87.8778  55.9108 0002673  91.7009 268.4425 13.10369243 70380
