[{"OBJECT_NAME":"ONEWEB-0696","OBJECT_ID":"2023-068P","EPOCH":"2026-03-10T12:37:52.845312","MEAN_MOTION":13.15549339,"ECCENTRICITY":0.0001802,"INCLINATION":87.8938,"RA_OF_ASC_NODE":278.9237,"ARG_OF_PERICENTER":105.5156,"MEAN_ANOMALY":254.6173,"EPHEMERIS_TYPE":0,"CLASSIFICATION_TYPE":"U","NORAD_CAT_ID":56723,"ELEMENT_SET_NO":999,"REV_AT_EPOCH":13639,"BSTAR":-0.00023434,"MEAN_MOTION_DOT":-7.5e-7,"MEAN_MOTION_DDOT":0},{"OBJECT_NAME":"ONEWEB-0703","OBJECT_ID":"2023-068Q","EPOCH":"2026-03-10T12:51:34.506720","MEAN_MOTION":13.1554751,"ECCENTRICITY":0.0001611,"INCLINATION":87.8937,"RA_OF_ASC_NODE":278.9025,"ARG_OF_PERICENTER":127.1298,"MEAN_ANOMALY":232.9979,"EPHEMERIS_TYPE":0,"CLASSIFICATION_TYPE":"U","NORAD_CAT_ID":56724,"ELEMENT_SET_NO":999,"REV_AT_EPOCH":13628,"BSTAR":-0.00031384,"MEAN_MOTION_DOT":-1.05e-6,"MEAN_MOTION_DDOT":0},{"OBJECT_NAME":"ONEWEB-0721","OBJECT_ID":"2023-068R","EPOCH":"2026-03-10T11:31:19.730208","MEAN_MOTION":13.22461951,"ECCENTRICITY":0.0001921,"INCLINATION":86.6759,"RA_OF_ASC_NODE":117.0352,"ARG_OF_PERICENTER":99.8973,"MEAN_ANOMALY":260.2377,"EPHEMERIS_TYPE":0,"CLASSIFICATION_TYPE":"U","NORAD_CAT_ID":56725,"ELEMENT_SET_NO":999,"REV_AT_EPOCH":14489,"BSTAR":3.174e-5,"MEAN_MOTION_DOT":2.8e-7,"MEAN_MOTION_DDOT":0},{"OBJECT_NAME":"ONEWEB-0015","OBJECT_ID":"2024-188A","EPOCH":"2026-03-10T10:17:32.837856","MEAN_MOTION":13.11419467,"ECCENTRICITY":0.0001407,"INCLINATION":87.8864,"RA_OF_ASC_NODE":40.7299,"ARG_OF_PERICENTER":67.4489,"MEAN_ANOMALY":292.6788,"EPHEMERIS_TYPE":0,"CLASSIFICATION_TYPE":"U","NORAD_CAT_ID":61594,"ELEMENT_SET_NO":999,"REV_AT_EPOCH":7151,"BSTAR":0.00058542,"MEAN_MOTION_DOT":2.2e-6,"MEAN_MOTION_DDOT":0},{"OBJECT_NAME":"ONEWEB-0687","OBJECT_ID":"2024-188B","EPOCH":"2026-03-10T10:30:27.817344","MEAN_MOTION":13.17649091,"ECCENTRICITY":0.0001912,"INCLINATION":87.9142,"RA_OF_ASC_NODE":25.4931,"ARG_OF_PERICENTER":63.3051,"MEAN_ANOMALY":296.8276,"EPHEMERIS_TYPE":0,"CLASSIFICATION_TYPE":"U","NORAD_CAT_ID":61595,"ELEMENT_SET_NO":999,"REV_AT_EPOCH":7289,"BSTAR":-0.00034119,"MEAN_MOTION_DOT":-1.2e-6,"MEAN_MOTION_DDOT":0},{"OBJECT_NAME":"ONEWEB-0688","OBJECT_ID":"2024-188C","EPOCH":"2026-03-08T22:44:33.295776","MEAN_MOTION":13.17794613,"ECCENTRICITY":0.00024256,"INCLINATION":87.9138,"RA_OF_ASC_NODE":25.7892,"ARG_OF_PERICENTER":298.5992,"MEAN_ANOMALY":61.4895,"EPHEMERIS_TYPE":0,"CLASSIFICATION_TYPE":"U","NORAD_CAT_ID":61596,"ELEMENT_SET_NO":999,"REV_AT_EPOCH":7269,"BSTAR":0.046113889,"MEAN_MOTION_DOT":0.00017991,"MEAN_MOTION_DDOT":0},{"OBJECT_NAME":"ONEWEB-0689","OBJECT_ID":"2024-188D","EPOCH":"2026-03-10T11:06:22.869216","MEAN_MOTION":13.114143,"ECCENTRICITY":0.0002059,"INCLINATION":87.8877,"RA_OF_ASC_NODE":40.6635,"ARG_OF_PERICENTER":75.524,"MEAN_ANOMALY":284.6116,"EPHEMERIS_TYPE":0,"CLASSIFICATION_TYPE":"U","NORAD_CAT_ID":61597,"ELEMENT_SET_NO":999,"REV_AT_EPOCH":7151,"BSTAR":2.0271e-5,"MEAN_MOTION_DOT":2.0e-7,"MEAN_MOTION_DDOT":0},{"OBJECT_NAME":"ONEWEB-0690","OBJECT_ID":"2024-188E","EPOCH":"2026-03-10T11:21:01.608192","MEAN_MOTION":13.1141491,"ECCENTRICITY":0.0001732,"INCLINATION":87.887,"RA_OF_ASC_NODE":40.6818,"ARG_OF_PERICENTER":106.152,"MEAN_ANOMALY":253.9798,"EPHEMERIS_TYPE":0,"CLASSIFICATION_TYPE":"U","NORAD_CAT_ID":61598,"ELEMENT_SET_NO":999,"REV_AT_EPOCH":7169,"BSTAR":-0.0011807,"MEAN_MOTION_DOT":-4.06e-6,"MEAN_MOTION_DDOT":0},{"OBJECT_NAME":"ONEWEB-0691","OBJECT_ID":"2024-188F","EPOCH":"2026-03-10T11:13:42.360960","MEAN_MOTION":13.11414288,"ECCENTRICITY":0.0001592,"INCLINATION":87.8877,"RA_OF_ASC_NODE":40.583,"ARG_OF_PERICENTER":72.1779,"MEAN_ANOMALY":287.9522,"EPHEMERIS_TYPE":0,"CLASSIFICATION_TYPE":"U","NORAD_CAT_ID":61599,"ELEMENT_SET_NO":999,"REV_AT_EPOCH":7154,"BSTAR":-0.00051268,"MEAN_MOTION_DOT":-1.69e-6,"MEAN_MOTION_DDOT":0},{"OBJECT_NAME":"ONEWEB-0692","OBJECT_ID":"2024-188G","EPOCH":"2026-03-10T09:53:07.898208","MEAN_MOTION":13.1141724,"ECCENTRICITY":0.0002746,"INCLINATION":87.8858,"RA_OF_ASC_NODE":40.7263,"ARG_OF_PERICENTER":85.9847,"MEAN_ANOMALY":274.1595,"EPHEMERIS_TYPE":0,"CLASSIFICATION_TYPE":"U","NORAD_CAT_ID":61600,"ELEMENT_SET_NO":999,"REV_AT_EPOCH":7152,"BSTAR":-0.001109,"MEAN_MOTION_DOT":-3.8e-6,"MEAN_MOTION_DDOT":0},{"OBJECT_NAME":"ONEWEB-0693","OBJECT_ID":"2024-188H","EPOCH":"2026-03-10T09:39:25.244064","MEAN_MOTION":13.17650093,"ECCENTRICITY":0.0001384,"INCLINATION":87.9134,"RA_OF_ASC_NODE":25.5219,"ARG_OF_PERICENTER":110.3149,"MEAN_ANOMALY":249.8131,"EPHEMERIS_TYPE":0,"CLASSIFICATION_TYPE":"U","NORAD_CAT_ID":61601,"ELEMENT_SET_NO":999,"REV_AT_EPOCH":7287,"BSTAR":0.00013952,"MEAN_MOTION_DOT":6.7e-7,"MEAN_MOTION_DDOT":0},{"OBJECT_NAME":"ONEWEB-0695","OBJECT_ID":"2024-188J","EPOCH":"2026-03-10T11:08:49.623072","MEAN_MOTION":13.114153,"ECCENTRICITY":0.0002336,"INCLINATION":87.8859,"RA_OF_ASC_NODE":40.7068,"ARG_OF_PERICENTER":77.0561,"MEAN_ANOMALY":283.0828,"EPHEMERIS_TYPE":0,"CLASSIFICATION_TYPE":"U","NORAD_CAT_ID":61602,"ELEMENT_SET_NO":999,"REV_AT_EPOCH":7152,"BSTAR":-0.000236,"MEAN_MOTION_DOT":-7.1e-7,"MEAN_MOTION_DDOT":0},{"OBJECT_NAME":"ONEWEB-0697","OBJECT_ID":"2024-188K","EPOCH":"2026-03-10T10:05:20.793984","MEAN_MOTION":13.11418125,"ECCENTRICITY":0.0002633,"INCLINATION":87.8862,"RA_OF_ASC_NODE":40.7049,"ARG_OF_PERICENTER":86.5015,"MEAN_ANOMALY":273.6414,"EPHEMERIS_TYPE":0,"CLASSIFICATION_TYPE":"U","NORAD_CAT_ID":61603,"ELEMENT_SET_NO":999,"REV_AT_EPOCH":7150,"BSTAR":-0.00045392,"MEAN_MOTION_DOT":-1.48e-6,"MEAN_MOTION_DDOT":0},{"OBJECT_NAME":"ONEWEB-0698","OBJECT_ID":"2024-188L","EPOCH":"2026-03-10T11:23:28.119264","MEAN_MOTION":13.11414995,"ECCENTRICITY":0.0002671,"INCLINATION":87.8858,"RA_OF_ASC_NODE":40.7099,"ARG_OF_PERICENTER":106.6656,"MEAN_ANOMALY":253.4765,"EPHEMERIS_TYPE":0,"CLASSIFICATION_TYPE":"U","NORAD_CAT_ID":61604,"ELEMENT_SET_NO":999,"REV_AT_EPOCH":7153,"BSTAR":-0.0011892,"MEAN_MOTION_DOT":-4.09e-6,"MEAN_MOTION_DDOT":0},{"OBJECT_NAME":"ONEWEB-0699","OBJECT_ID":"2024-188M","EPOCH":"2026-03-10T11:38:48.622272","MEAN_MOTION":13.10373231,"ECCENTRICITY":0.0002504,"INCLINATION":87.8783,"RA_OF_ASC_NODE":55.915,"ARG_OF_PERICENTER":91.008,"MEAN_ANOMALY":269.1335,"EPHEMERIS_TYPE":0,"CLASSIFICATION_TYPE":"U","NORAD_CAT_ID":61605,"ELEMENT_SET_NO":999,"REV_AT_EPOCH":7038,"BSTAR":0.0016563,"MEAN_MOTION_DOT":5.91e-6,"MEAN_MOTION_DDOT":0},{"OBJECT_NAME":"ONEWEB-0700","OBJECT_ID":"2024-188N","EPOCH":"2026-03-10T11:41:11.878656","MEAN_MOTION":13.10372495,"ECCENTRICITY":0.0002534,"INCLINATION":87.8794,"RA_OF_ASC_NODE":55.8092,"ARG_OF_PERICENTER":81.3798,"MEAN_ANOMALY":278.7616,"EPHEMERIS_TYPE":0,"CLASSIFICATION_TYPE":"U","NORAD_CAT_ID":61606,"ELEMENT_SET_NO":999,"REV_AT_EPOCH":7037,"BSTAR":0.0020719,"MEAN_MOTION_DOT":7.36e-6,"MEAN_MOTION_DDOT":0},{"OBJECT_NAME":"ONEWEB-0701","OBJECT_ID":"2024-188P","EPOCH":"2026-03-10T12:05:05.155296","MEAN_MOTION":13.10369243,"ECCENTRICITY":0.0002673,"INCLINATION":87.8778,"RA_OF_ASC_NODE":55.9108,"ARG_OF_PERICENTER":91.7009,"MEAN_ANOMALY":268.4425,"EPHEMERIS_TYPE":0,"CLASSIFICATION_TYPE":"U","NORAD_CAT_ID":61607,"ELEMENT_SET_NO":999,"REV_AT_EPOCH":7038,"BSTAR":0.00010562,"MEAN_MOTION_DOT":5.0e-7,"MEAN_MOTION_DDOT":0}]
